NORAD_CAT_ID,OBJECT_NAME,OBJECT_TYPE,EPOCH,MEAN_MOTION,ECCENTRICITY,INCLINATION,RA_OF_ASC_NODE,ARG_OF_PERICENTER,MEAN_ANOMALY,BSTAR,MEAN_MOTION_DOT,MEAN_MOTION_DDOT,TLE_LINE0,TLE_LINE1,TLE_LINE2,SEMIMAJOR_AXIS,PERIOD,APOGEE,PERIGEE,DECAYED
49445.0,STARLINK-3122,PAYLOAD,2022-04-04 22:00:00,15.0885699,0.0002189,53.216,180.0731,32.1376,231.0958,-0.00064939,-0.00010614,0.0,0 STARLINK-3122,1 49445U 21104AP  22094.91667824 -.00010614  00000-0 -64939-3 0  9992,2 49445  53.2160 180.0731 0002189  32.1376 231.0958 15.08856990  3605,6917.828,95.436,541.2080000000002,538.179,0.0
49445.0,STARLINK-3122,PAYLOAD,2022-04-05 00:00:00,15.0884054,0.0002129,53.216,179.6986,33.4975,322.6434,0.001818,0.00028765,0.0,0 STARLINK-3122,1 49445U 21104AP  22095.00001157  .00028765  00000-0  18180-2 0  9994,2 49445  53.2160 179.6986 0002129  33.4975 322.6434 15.08840540 23268,6917.879,95.438,541.217,538.271,0.0
49445.0,STARLINK-3122,PAYLOAD,2022-04-05 14:00:01,15.08868343,0.0002227,53.2157,177.0815,31.2096,255.3142,-0.0023461,-0.00037463,0.0,0 STARLINK-3122,1 49445U 21104AP  22095.58335648 -.00037463  00000-0 -23461-2 0  9997,2 49445  53.2157 177.0815 0002227  31.2096 255.3142 15.08868343  3566,6917.794,95.436,541.1990000000002,538.118,0.0
49445.0,STARLINK-3122,PAYLOAD,2022-04-05 16:00:00,15.08851786,0.0002225,53.2155,176.7075,29.4336,349.9377,-0.0010682,-0.00017255,0.0,0 STARLINK-3122,1 49445U 21104AP  22095.66667824 -.00017255  00000-0 -10682-2 0  9998,2 49445  53.2155 176.7075 0002225  29.4336 349.9377 15.08851786 23376,6917.844,95.437,541.249,538.17,0.0
49445.0,STARLINK-3122,PAYLOAD,2022-04-05 22:00:00,15.0885794,0.0002097,53.2154,175.5838,29.8997,268.1757,-0.0052802,-0.00083395,0.0,0 STARLINK-3122,1 49445U 21104AP  22095.91667824 -.00083395  00000-0 -52802-2 0  9994,2 49445  53.2154 175.5838 0002097  29.8997 268.1757 15.08857940  3564,6917.826,95.436,541.141,538.24,0.0
49445.0,STARLINK-3122,PAYLOAD,2022-04-06 14:00:01,15.088127300000002,0.0002257,53.2153,172.5925,29.797,291.418,0.0035728,0.00056992,0.0,0 STARLINK-3122,1 49445U 21104AP  22096.58334491  .00056992  00000-0  35728-2 0  9998,2 49445  53.2153 172.5925 0002257  29.7970 291.4180 15.08812730  3595,6917.964,95.439,541.39,538.2669999999998,0.0
49445.0,STARLINK-3122,PAYLOAD,2022-04-06 22:00:00,15.08870498,0.000209,53.2149,171.0946,28.4513,304.3523,-0.00422,-0.00066884,0.0,0 STARLINK-3122,1 49445U 21104AP  22096.91667824 -.00066884  00000-0 -42200-2 0  9990,2 49445  53.2149 171.0946 0002090  28.4513 304.3523 15.08870498 23559,6917.7869999999975,95.436,541.0980000000002,538.206,0.0
49445.0,STARLINK-3122,PAYLOAD,2022-04-07 14:00:01,15.08829602,0.0002298,53.2151,168.1033,28.2217,327.7816,0.0013989,0.0002204,0.0,0 STARLINK-3122,1 49445U 21104AP  22097.58334491  .00022040  00000-0  13989-2 0  9991,2 49445  53.2151 168.1033 0002298  28.2217 327.7816 15.08829602  3615,6917.9119999999975,95.438,541.367,538.187,0.0
49445.0,STARLINK-3122,PAYLOAD,2022-04-07 20:00:01,15.0886973,0.0002272,53.2148,166.9799,28.7516,245.9497,-0.0037938,-0.00060214,0.0,0 STARLINK-3122,1 49445U 21104AP  22097.83334491 -.00060214  00000-0 -37938-2 0  9996,2 49445  53.2148 166.9799 0002272  28.7516 245.9497 15.08869730 23697,6917.79,95.436,541.226,538.0830000000002,0.0
49445.0,STARLINK-3122,PAYLOAD,2022-04-07 22:00:00,15.088465,0.0002219,53.215,166.6052,30.6814,336.931,-0.00109,-0.00017597,0.0,0 STARLINK-3122,1 49445U 21104AP  22097.91667824 -.00017597  00000-0 -10900-2 0  9990,2 49445  53.2150 166.6052 0002219  30.6814 336.9310 15.08846500  3573,6917.861,95.437,541.261,538.19,0.0
49445.0,STARLINK-3122,PAYLOAD,2022-04-08 06:00:00,15.08855206,0.0002234,53.2152,165.1087,34.1299,345.0724,0.00052369,8.06e-05,0.0,0 STARLINK-3122,1 49445U 21104AP  22098.25001157  .00008060  00000-0  52369-3 0  9998,2 49445  53.2152 165.1087 0002234  34.1299 345.0724 15.08855206 23766,6917.834,95.437,541.244,538.153,0.0
49445.0,STARLINK-3122,PAYLOAD,2022-04-08 14:00:03,15.0884483,0.0002438,53.2154,163.6138,30.3131,0.628,0.0015557,0.00024562,0.0,0 STARLINK-3122,1 49445U 21104AP  22098.58336806  .00024562  00000-0  15557-2 0  9998,2 49445  53.2154 163.6138 0002438  30.3131   0.6280 15.08844830  3611,6917.866,95.437,541.4169999999998,538.044,0.0
49445.0,STARLINK-3122,PAYLOAD,2022-04-08 22:00:00,15.08857844,0.0002245,53.2155,162.1158,29.5347,12.899,-0.0031074,-0.00049429,0.0,0 STARLINK-3122,1 49445U 21104AP  22098.91667824 -.00049429  00000-0 -31074-2 0  9995,2 49445  53.2155 162.1158 0002245  29.5347  12.8990 15.08857844 23864,6917.826,95.436,541.244,538.138,0.0
49445.0,STARLINK-3122,PAYLOAD,2022-04-09 14:00:01,15.08817708,0.000243,53.2159,159.1247,26.5334,39.0686,0.0012735,0.00020026,0.0,0 STARLINK-3122,1 49445U 21104AP  22099.58334491  .00020026  00000-0  12735-2 0  9993,2 49445  53.2159 159.1247 0002430  26.5334  39.0686 15.08817708  3600,6917.949000000001,95.439,541.495,538.132,0.0
49445.0,STARLINK-3122,PAYLOAD,2022-04-09 16:00:00,15.08831462,0.0002442,53.2157,158.7504,25.6413,132.8516,-0.00053226,-8.748e-05,0.0,0 STARLINK-3122,1 49445U 21104AP  22099.66667824 -.00008748  00000-0 -53226-3 0  9991,2 49445  53.2157 158.7504 0002442  25.6413 132.8516 15.08831462 23979,6917.906,95.438,541.461,538.082,0.0
49445.0,STARLINK-3122,PAYLOAD,2022-04-09 22:00:00,15.08821314,0.0002236,53.2161,157.6267,26.9957,50.2036,0.00040955,6.233e-05,0.0,0 STARLINK-3122,1 49445U 21104AP  22099.91667824  .00006233  00000-0  40955-3 0  9999,2 49445  53.2161 157.6267 0002236  26.9957  50.2036 15.08821314  3609,6917.938,95.439,541.349,538.256,0.0
49445.0,STARLINK-3122,PAYLOAD,2022-04-10 14:00:01,15.08820755,0.0002462,53.2163,154.6357,25.3871,74.97800000000002,0.0026124,0.00041513,0.0,0 STARLINK-3122,1 49445U 21104AP  22100.58334491  .00041513  00000-0  26124-2 0  9997,2 49445  53.2163 154.6357 0002462  25.3871  74.9780 15.08820755 24113,6917.939,95.439,541.507,538.101,0.0
49445.0,STARLINK-3122,PAYLOAD,2022-04-10 22:00:00,15.08836786,0.0002234,53.2165,153.1376,26.1605,85.8157,0.00036816,5.575e-05,0.0,0 STARLINK-3122,1 49445U 21104AP  22100.91667824  .00005575  00000-0  36816-3 0  9991,2 49445  53.2165 153.1376 0002234  26.1605  85.8157 15.08836786  3602,6917.89,95.438,541.3009999999998,538.21,0.0
49445.0,STARLINK-3122,PAYLOAD,2022-04-11 06:00:00,15.08855536,0.0002254,53.2167,151.6415,27.1848,96.3717,-0.00075434,-0.00012279,0.0,0 STARLINK-3122,1 49445U 21104AP  22101.25001157 -.00012279  00000-0 -75434-3 0  9990,2 49445  53.2167 151.6415 0002254  27.1848  96.3717 15.08855536 24216,6917.833000000001,95.437,541.257,538.139,0.0
49445.0,STARLINK-3122,PAYLOAD,2022-04-11 14:00:01,15.08833518,0.0002438,53.2164,150.1466,23.4541,111.7049,0.00042315,6.452e-05,0.0,0 STARLINK-3122,1 49445U 21104AP  22101.58334491  .00006452  00000-0  42315-3 0  9992,2 49445  53.2164 150.1466 0002438  23.4541 111.7049 15.08833518  3602,6917.9,95.438,541.452,538.0790000000002,0.0
49445.0,STARLINK-3122,PAYLOAD,2022-04-11 22:00:00,15.08808271,0.0002182,53.2164,148.6486,23.6113,123.1439,0.0015807,0.00024937,0.0,0 STARLINK-3122,1 49445U 21104AP  22101.91667824  .00024937  00000-0  15807-2 0  9991,2 49445  53.2164 148.6486 0002182  23.6113 123.1439 15.08808271  3595,6917.977,95.44,541.352,538.3330000000002,0.0
49445.0,STARLINK-3122,PAYLOAD,2022-04-12 06:00:02,15.08842572,0.0002228,53.2166,147.1527,25.5786,132.8003,-0.0013504,-0.00021718,0.0,0 STARLINK-3122,1 49445U 21104AP  22102.25002315 -.00021718  00000-0 -13504-2 0  9995,2 49445  53.2166 147.1527 0002228  25.5786 132.8003 15.08842572 24369,6917.873000000001,95.437,541.279,538.196,0.0
49445.0,STARLINK-3122,PAYLOAD,2022-04-12 14:00:01,15.0880788,0.0002436,53.2161,145.6577,23.1903,146.7155,0.0029951,0.00047661,0.0,0 STARLINK-3122,1 49445U 21104AP  22102.58334491  .00047661  00000-0  29951-2 0  9990,2 49445  53.2161 145.6577 0002436  23.1903 146.7155 15.08807880  3618,6917.979,95.44,541.529,538.158,0.0
49445.0,STARLINK-3122,PAYLOAD,2022-04-12 22:00:00,15.08820131,0.0002213,53.216,144.1596,25.4483,156.0412,0.0020233,0.00032043,0.0,0 STARLINK-3122,1 49445U 21104AP  22102.91667824  .00032043  00000-0  20233-2 0  9998,2 49445  53.2160 144.1596 0002213  25.4483 156.0412 15.08820131  3561,6917.941,95.439,541.337,538.275,0.0
49445.0,STARLINK-3122,PAYLOAD,2022-04-13 04:00:00,15.08850574,0.0002223,53.216,143.0366,28.1351,72.0366,-3.8485e-05,-9.01e-06,0.0,0 STARLINK-3122,1 49445U 21104AP  22103.16667824 -.00000901  00000-0 -38485-4 0  9996,2 49445  53.2160 143.0366 0002223  28.1351  72.0366 15.08850574 24505,6917.848000000001,95.437,541.251,538.175,0.0
49445.0,STARLINK-3122,PAYLOAD,2022-04-13 14:00:03,15.08827789,0.0002474,53.2155,141.1685,25.0645,179.7369,0.002735,0.00043495,0.0,0 STARLINK-3122,1 49445U 21104AP  22103.58336806  .00043495  00000-0  27350-2 0  9995,2 49445  53.2155 141.1685 0002474  25.0645 179.7369 15.08827789  3565,6917.918000000002,95.438,541.494,538.071,0.0
49445.0,STARLINK-3122,PAYLOAD,2022-04-13 22:00:00,15.08833773,0.0002272,53.2153,139.6704,27.6856,188.5967,0.0023373,0.00037101,0.0,0 STARLINK-3122,1 49445U 21104AP  22103.91667824  .00037101  00000-0  23373-2 0  9997,2 49445  53.2153 139.6704 0002272  27.6856 188.5967 15.08833773  3613,6917.899,95.438,541.336,538.193,0.0
49445.0,STARLINK-3122,PAYLOAD,2022-04-14 06:00:00,15.08868295,0.0002352,53.2153,138.175,28.8318,199.0458,-0.0016736,-0.00026847,0.0,0 STARLINK-3122,1 49445U 21104AP  22104.25001157 -.00026847  00000-0 -16736-2 0  9998,2 49445  53.2153 138.1750 0002352  28.8318 199.0458 15.08868295 24660,6917.794,95.436,541.286,538.0319999999998,0.0
49445.0,STARLINK-3122,PAYLOAD,2022-04-14 14:00:01,15.08848044,0.0002504,53.2149,136.6793,25.1189,214.3781,-0.00094565,-0.00015311,0.0,0 STARLINK-3122,1 49445U 21104AP  22104.58334491 -.00015311  00000-0 -94565-3 0  9995,2 49445  53.2149 136.6793 0002504  25.1189 214.3781 15.08848044  3601,6917.856,95.437,541.453,537.989,0.0
